SPACEBEE-122            
1 52014U 22026G   22285.51175313  .00021714  00000+0  10601-2 0  9993
2 52014  97.5070 284.2071 0023850 223.3464 136.5894 15.18038504 31935
SPACEBEE-119            
1 52015U 22026H   22286.00685890  .00018385  00000+0  90907-3 0  9993
2 52015  97.5082 284.6497 0024519 222.5539 137.3795 15.17615226 32001
SPACEBEE-115            
1 52016U 22026J   22285.45427510  .00020221  00000+0  99096-3 0  9995
2 52016  97.5085 284.1658 0024270 224.2495 135.6798 15.17913010 31929
SPACEBEENZ-14           
1 52018U 22026L   22285.51511460  .00026793  00000+0  12706-2 0  9994
2 52018  97.5074 284.3737 0023660 222.6915 137.2482 15.19006662 31948
SPACEBEENZ-11           
1 52019U 22026M   22285.50116832  .00028842  00000+0  13582-2 0  9998
2 52019  97.5069 284.3893 0023524 222.4859 137.4556 15.19237493 31908
SPACEBEE-127            
1 52020U 22026N   22285.66229541  .00020227  00000+0  99499-3 0  9990
2 52020  97.5075 284.3161 0024264 223.3496 136.5829 15.17781522 31902
SPACEBEE-125            
1 52021U 22026P   22285.48282507  .00024127  00000+0  11620-2 0  9994
2 52021  97.5064 284.2311 0025921 223.7916 136.1262 15.18442775 31800
SPACEBEE-117            
1 52022U 22026Q   22285.45957895  .00020335  00000+0  99852-3 0  9992
2 52022  97.5086 284.1596 0024297 223.9564 135.9737 15.17840708 31794
SPACEBEE-116            
1 52023U 22026R   22285.51476505  .00020380  00000+0  99692-3 0  9996
2 52023  97.5088 284.2412 0024130 224.0815 135.8496 15.17977541 31801
SPACEBEE-113            
1 52024U 22026S   22285.50794921  .00020792  00000+0  10139-2 0  9996
2 52024  97.5082 284.2399 0026034 220.6854 139.2435 15.18039285 31806
SPACEBEE-112            
1 52025U 22026T   22285.74930351  .00021288  00000+0  10268-2 0  9996
2 52025  97.5084 284.5300 0024037 222.6090 137.3279 15.18458808 31844
SPACEBEENZ-13           
1 52026U 22026U   22285.97242832  .00022588  00000+0  10699-2 0  9994
2 52026  97.5075 284.8349 0023730 221.2020 138.7424 15.19083445 31791
SPACEBEE-123            
1 52027U 22026V   22286.26434636  .00017819  00000+0  87842-3 0  9999
2 52027  97.5073 284.8825 0024355 221.3471 138.5920 15.17732038 31824
SPACEBEENZ-12           
1 52028U 22026W   22285.46483717  .00025233  00000+0  12051-2 0  9993
2 52028  97.5094 284.3119 0023753 223.2272 136.7098 15.18773201 31802
SPACEBEE-124            
1 52029U 22026X   22285.74043940  .00020993  00000+0  10368-2 0  9992
2 52029  97.5068 284.3535 0024312 223.4080 136.5239 15.17633477 30462
SPACEBEE-136            
1 52164U 22033H   22285.49278857  .00030772  00000+0  11858-2 0  9990
2 52164  97.3736   5.1243 0007858 330.9232  29.1568 15.26252979 29516
SPACEBEE-138            
1 52166U 22033K   22286.22458373  .00027088  00000+0  10466-2 0  9997
2 52166  97.3755   5.8775 0008671 318.1278  41.9296 15.26185164 29621
SPACEBEE-130            
1 52176U 22033V   22286.21666111  .00027386  00000+0  10528-2 0  9998
2 52176  97.3738   5.8554 0005894 325.2468  34.8385 15.26369407 29604
SPACEBEE-139            
1 52177U 22033W   22285.87769813  .00024943  00000+0  97976-3 0  9992
2 52177  97.3760   5.4339 0008666 326.4721  33.5968 15.25652197 29560
SPACEBEE-129            
1 52179U 22033Y   22285.68746954  .00030133  00000+0  11857-2 0  9995
2 52179  97.3744   5.1985 0007408 332.2743  27.8100 15.25563631 29535
SPACEBEE-134            
1 52180U 22033Z   22286.16611912  .00026224  00000+0  10458-2 0  9998
2 52180  97.3730   5.6214 0007702 329.9511  30.1284 15.25142475 29589
SPACEBEE-131            
1 52181U 22033AA  22286.19993134  .00025173  00000+0  98746-3 0  9990
2 52181  97.3742   5.7384 0007442 331.7718  28.3116 15.25704289 29594
SPACEBEE-128            
1 52182U 22033AB  22285.68314463  .00028826  00000+0  11326-2 0  9992
2 52182  97.3762   5.2445 0007728 331.3944  28.6870 15.25620134 29534
SPACEBEE-133            
1 52183U 22033AC  22286.19739049  .00026340  00000+0  10322-2 0  9995
2 52183  97.3749   5.7446 0007659 330.2175  29.8626 15.25726792 29598
SPACEBEE-132            
1 52185U 22033AE  22286.17452672  .00028077  00000+0  10885-2 0  9992
2 52185  97.3749   5.7875 0007563 344.2478  15.8524 15.26072789 29594
SPACEBEE-137            
1 52186U 22033AF  22285.48410526  .00029461  00000+0  11607-2 0  9999
2 52186  97.3749   5.0297 0007826 333.0280  27.0551 15.25523608 29501
SPACEBEE-135            
1 52187U 22033AG  22286.17334825  .00027595  00000+0  10702-2 0  9995
2 52187  97.3758   5.8050 0007147 324.9991  35.0777 15.26067328 29592
SPACEBEE-143            
1 52394U 22047A   22285.18626246  .00021153  00000+0  11247-2 0  9990
2 52394  97.4440   7.5637 0009577 128.0121 232.1977 15.15255610 26015
SPACEBEENZ-15           
1 52395U 22047B   22286.18677719  .00022906  00000+0  11822-2 0  9999
2 52395  97.4440   8.6702 0009548 123.4967 236.7180 15.16291044 26171
SPACEBEENZ-16           
1 52396U 22047C   22286.18682827  .00023000  00000+0  11875-2 0  9990
2 52396  97.4440   8.6703 0009355 123.7714 236.4411 15.16278320 26178
SPACEBEENZ-17           
1 52397U 22047D   22285.66123957  .00026107  00000+0  13490-2 0  9993
2 52397  97.4437   8.1488 0009541 125.4072 234.8054 15.16221702 26091
SPACEBEENZ-18           
1 52398U 22047E   22286.19005481  .00021844  00000+0  11295-2 0  9998
2 52398  97.4437   8.6663 0009628 123.9907 236.2242 15.16234228 26179
SPACEBEE-140            
1 52399U 22047F   22285.48630494  .00021708  00000+0  11377-2 0  9998
2 52399  97.4446   7.9271 0009746 125.1549 235.0598 15.15758964 26082
SPACEBEE-141            
1 52400U 22047G   22285.50469045  .00018825  00000+0  99751-3 0  9995
2 52400  97.4444   7.9031 0009727 124.8795 235.3353 15.15399245 26068
SPACEBEE-142            
1 52401U 22047H   22285.51540672  .00019179  00000+0  10205-2 0  9992
2 52401  97.4440   7.8853 0009586 125.2717 234.9414 15.15248656 26060
SPACEBEENZ-20           
1 52402U 22047J   22285.47135445  .00024939  00000+0  12922-2 0  9994
2 52402  97.4433   7.9301 0010216 128.8376 231.3770 15.16128734 26065
SPACEBEENZ-22           
1 52403U 22047K   22283.23294204  .00024448  00000+0  12748-2 0  9997
2 52403  97.4446   5.7223 0010356 135.0075 225.1998 15.15907732 25727
SPACEBEENZ-19           
1 52404U 22047L   22285.20519650  .00026077  00000+0  13499-2 0  9996
2 52404  97.4439   7.6755 0010269 129.5745 230.6396 15.16150574 26028
SPACEBEENZ-21           
1 52405U 22047M   22286.19861871  .00021359  00000+0  11077-2 0  9999
2 52405  97.4429   8.6410 0010183 126.3618 233.8556 15.16128736 26170
SPACEBEE-148            
1 52406U 22047N   22285.89089444  .00017658  00000+0  92848-3 0  9997
2 52406  97.4439   8.2896 0010315 126.6104 233.6079 15.15681149 26120
SPACEBEE-149            
1 52407U 22047P   22286.18310118  .00018684  00000+0  99387-3 0  9991
2 52407  97.4431   8.5067 0010243 125.6687 234.5501 15.15259077 26166
SPACEBEE-153            
1 52408U 22047Q   22285.23544795  .00021678  00000+0  11433-2 0  9999
2 52408  97.4467   7.6965 0010331 138.9678 221.2334 15.15530266 26022
SPACEBEE-150            
1 52409U 22047R   22285.18702107  .00021254  00000+0  11299-2 0  9997
2 52409  97.4437   7.5486 0010176 130.0973 230.1153 15.15253663 26015
SPACEBEE-144            
1 52410U 22047S   22285.64790845  .00019528  00000+0  10378-2 0  9994
2 52410  97.4449   8.0188 0009569 127.3837 232.8268 15.15288223 26080
SPACEBEE-145            
1 52411U 22047T   22285.19070357  .00021104  00000+0  11237-2 0  9992
2 52411  97.4440   7.5566 0009568 128.5089 231.7003 15.15204183 26018
SPACEBEE-146            
1 52412U 22047U   22286.19472309  .00015980  00000+0  85649-3 0  9991
2 52412  97.4433   8.5023 0009631 125.7716 234.4413 15.15030284 26167
SPACEBEE-151            
1 52413U 22047V   22286.18306507  .00016812  00000+0  89593-3 0  9994
2 52413  97.4437   8.5105 0010277 127.7327 232.4838 15.15217261 26162
SPACEBEE-152            
1 52414U 22047W   22285.20170358  .00019915  00000+0  10644-2 0  9997
2 52414  97.4429   7.5236 0010215 130.0974 230.1156 15.15077114 26018
SPACEBEE-147            
1 52415U 22047X   22286.18841645  .00016552  00000+0  88378-3 0  9994
2 52415  97.4441   8.5192 0009461 127.6970 232.5121 15.15159133 26160
SPACEBEE-155            
1 52416U 22047Y   22285.48230319  .00016534  00000+0  89393-3 0  9995
2 52416  97.4427   7.7562 0010905 132.6934 227.5218 15.14702241 26050
SPACEBEE-154            
1 52417U 22047Z   22284.21552687  .00017335  00000+0  93005-3 0  9996
2 52417  97.4442   6.5512 0010210 134.2170 225.9902 15.14971905 25864
